CCSDS_OMM_VERS = 2.0
CREATION_DATE  = 
ORIGINATOR     = 

OBJECT_NAME    = STARLINK-36058
OBJECT_ID      = 2025-270D
CENTER_NAME    = EARTH
REF_FRAME      = TEME
TIME_SYSTEM    = UTC
MEAN_ELEMENT_THEORY = SGP/SGP4

EPOCH          = 2025-12-18T22:01:33.478176
MEAN_MOTION    = 15.50122475
ECCENTRICITY   = .00025632
INCLINATION    = 42.9989
RA_OF_ASC_NODE = 156.5941
ARG_OF_PERICENTER = 268.1746
MEAN_ANOMALY   = 91.8820

EPHEMERIS_TYPE = 0
CLASSIFICATION_TYPE = U
NORAD_CAT_ID   = 66591
ELEMENT_SET_NO = 999
REV_AT_EPOCH   = 530
BSTAR          = -.37942805E-2
MEAN_MOTION_DOT = -.213513E-2
MEAN_MOTION_DDOT = 0

CCSDS_OMM_VERS = 2.0
CREATION_DATE  = 
ORIGINATOR     = 

OBJECT_NAME    = STARLINK-36066
OBJECT_ID      = 2025-270E
CENTER_NAME    = EARTH
REF_FRAME      = TEME
TIME_SYSTEM    = UTC
MEAN_ELEMENT_THEORY = SGP/SGP4

EPOCH          = 2025-12-18T21:17:43.330848
MEAN_MOTION    = 15.40720263
ECCENTRICITY   = .00014377
INCLINATION    = 42.9991
RA_OF_ASC_NODE = 157.2336
ARG_OF_PERICENTER = 280.4163
MEAN_ANOMALY   = 79.6531

EPHEMERIS_TYPE = 0
CLASSIFICATION_TYPE = U
NORAD_CAT_ID   = 66592
ELEMENT_SET_NO = 999
REV_AT_EPOCH   = 519
BSTAR          = .54957232E-3
MEAN_MOTION_DOT = .22737E-3
MEAN_MOTION_DDOT = 0

CCSDS_OMM_VERS = 2.0
CREATION_DATE  = 
ORIGINATOR     = 

OBJECT_NAME    = STARLINK-36031
OBJECT_ID      = 2025-270F
CENTER_NAME    = EARTH
REF_FRAME      = TEME
TIME_SYSTEM    = UTC
MEAN_ELEMENT_THEORY = SGP/SGP4

EPOCH          = 2025-12-19T00:00:02.000160
MEAN_MOTION    = 15.40674323
ECCENTRICITY   = .00016666
INCLINATION    = 42.9992
RA_OF_ASC_NODE = 156.3745
ARG_OF_PERICENTER = 273.6548
MEAN_ANOMALY   = 79.4074

EPHEMERIS_TYPE = 0
CLASSIFICATION_TYPE = U
NORAD_CAT_ID   = 66593
ELEMENT_SET_NO = 999
REV_AT_EPOCH   = 540
BSTAR          = .12409636E-2
MEAN_MOTION_DOT = .51844E-3
MEAN_MOTION_DDOT = 0

CCSDS_OMM_VERS = 2.0
CREATION_DATE  = 
ORIGINATOR     = 

OBJECT_NAME    = STARLINK-36032
OBJECT_ID      = 2025-270G
CENTER_NAME    = EARTH
REF_FRAME      = TEME
TIME_SYSTEM    = UTC
MEAN_ELEMENT_THEORY = SGP/SGP4

EPOCH          = 2025-12-19T00:00:02.000160
MEAN_MOTION    = 15.43868516
ECCENTRICITY   = .00020094
INCLINATION    = 42.9999
RA_OF_ASC_NODE = 156.1441
ARG_OF_PERICENTER = 274.7338
MEAN_ANOMALY   = 173.6603

EPHEMERIS_TYPE = 0
CLASSIFICATION_TYPE = U
NORAD_CAT_ID   = 66594
ELEMENT_SET_NO = 999
REV_AT_EPOCH   = 514
BSTAR          = -.4415418E-1
MEAN_MOTION_DOT = -.1845992E-1
MEAN_MOTION_DDOT = 0

CCSDS_OMM_VERS = 2.0
CREATION_DATE  = 
ORIGINATOR     = 

OBJECT_NAME    = STARLINK-35711
OBJECT_ID      = 2025-270H
CENTER_NAME    = EARTH
REF_FRAME      = TEME
TIME_SYSTEM    = UTC
MEAN_ELEMENT_THEORY = SGP/SGP4

EPOCH          = 2025-12-18T20:26:43.457568
MEAN_MOTION    = 15.50579745
ECCENTRICITY   = .00018049
INCLINATION    = 42.9990
RA_OF_ASC_NODE = 156.9591
ARG_OF_PERICENTER = 259.1109
MEAN_ANOMALY   = 100.9548

EPHEMERIS_TYPE = 0
CLASSIFICATION_TYPE = U
NORAD_CAT_ID   = 66595
ELEMENT_SET_NO = 999
REV_AT_EPOCH   = 540
BSTAR          = .14342614E-2
MEAN_MOTION_DOT = .84719E-3
MEAN_MOTION_DDOT = 0

CCSDS_OMM_VERS = 2.0
CREATION_DATE  = 
ORIGINATOR     = 

OBJECT_NAME    = STARLINK-35811
OBJECT_ID      = 2025-270J
CENTER_NAME    = EARTH
REF_FRAME      = TEME
TIME_SYSTEM    = UTC
MEAN_ELEMENT_THEORY = SGP/SGP4

EPOCH          = 2025-12-18T21:24:10.371744
MEAN_MOTION    = 15.40716354
ECCENTRICITY   = .00017927
INCLINATION    = 42.9989
RA_OF_ASC_NODE = 157.2675
ARG_OF_PERICENTER = 278.0365
MEAN_ANOMALY   = 82.0288

EPHEMERIS_TYPE = 0
CLASSIFICATION_TYPE = U
NORAD_CAT_ID   = 66596
ELEMENT_SET_NO = 999
REV_AT_EPOCH   = 540
BSTAR          = .45514578E-3
MEAN_MOTION_DOT = .18766E-3
MEAN_MOTION_DDOT = 0

CCSDS_OMM_VERS = 2.0
CREATION_DATE  = 
ORIGINATOR     = 

OBJECT_NAME    = STARLINK-35820
OBJECT_ID      = 2025-270K
CENTER_NAME    = EARTH
REF_FRAME      = TEME
TIME_SYSTEM    = UTC
MEAN_ELEMENT_THEORY = SGP/SGP4

EPOCH          = 2025-12-18T21:11:16.223424
MEAN_MOTION    = 15.40718030
ECCENTRICITY   = .00015238
INCLINATION    = 42.9992
RA_OF_ASC_NODE = 157.1985
ARG_OF_PERICENTER = 287.0164
MEAN_ANOMALY   = 73.0525

EPHEMERIS_TYPE = 0
CLASSIFICATION_TYPE = U
NORAD_CAT_ID   = 66597
ELEMENT_SET_NO = 999
REV_AT_EPOCH   = 540
BSTAR          = .48868017E-3
MEAN_MOTION_DOT = .20176E-3
MEAN_MOTION_DDOT = 0

CCSDS_OMM_VERS = 2.0
CREATION_DATE  = 
ORIGINATOR     = 

OBJECT_NAME    = STARLINK-35981
OBJECT_ID      = 2025-270L
CENTER_NAME    = EARTH
REF_FRAME      = TEME
TIME_SYSTEM    = UTC
MEAN_ELEMENT_THEORY = SGP/SGP4

EPOCH          = 2025-12-19T00:00:02.000160
MEAN_MOTION    = 15.40671165
ECCENTRICITY   = .00021375
INCLINATION    = 42.9994
RA_OF_ASC_NODE = 156.3129
ARG_OF_PERICENTER = 273.5568
MEAN_ANOMALY   = 104.3817

EPHEMERIS_TYPE = 0
CLASSIFICATION_TYPE = U
NORAD_CAT_ID   = 66598
ELEMENT_SET_NO = 999
REV_AT_EPOCH   = 524
BSTAR          = .13011777E-2
MEAN_MOTION_DOT = .54388E-3
MEAN_MOTION_DDOT = 0

CCSDS_OMM_VERS = 2.0
CREATION_DATE  = 
ORIGINATOR     = 

OBJECT_NAME    = STARLINK-35930
OBJECT_ID      = 2025-270M
CENTER_NAME    = EARTH
REF_FRAME      = TEME
TIME_SYSTEM    = UTC
MEAN_ELEMENT_THEORY = SGP/SGP4

EPOCH          = 2025-12-18T20:24:45.368640
MEAN_MOTION    = 15.50586596
ECCENTRICITY   = .00012918
INCLINATION    = 42.9996
RA_OF_ASC_NODE = 156.9496
ARG_OF_PERICENTER = 288.1019
MEAN_ANOMALY   = 71.9701

EPHEMERIS_TYPE = 0
CLASSIFICATION_TYPE = U
NORAD_CAT_ID   = 66599
ELEMENT_SET_NO = 999
REV_AT_EPOCH   = 529
BSTAR          = .13334425E-2
MEAN_MOTION_DOT = .78696E-3
MEAN_MOTION_DDOT = 0

CCSDS_OMM_VERS = 2.0
CREATION_DATE  = 
ORIGINATOR     = 

OBJECT_NAME    = STARLINK-35980
OBJECT_ID      = 2025-270N
CENTER_NAME    = EARTH
REF_FRAME      = TEME
TIME_SYSTEM    = UTC
MEAN_ELEMENT_THEORY = SGP/SGP4

EPOCH          = 2025-12-19T00:00:02.000160
MEAN_MOTION    = 15.40670849
ECCENTRICITY   = .00020993
INCLINATION    = 42.9997
RA_OF_ASC_NODE = 156.1918
ARG_OF_PERICENTER = 277.4972
MEAN_ANOMALY   = 150.1950

EPHEMERIS_TYPE = 0
CLASSIFICATION_TYPE = U
NORAD_CAT_ID   = 66600
ELEMENT_SET_NO = 999
REV_AT_EPOCH   = 530
BSTAR          = .13757518E-2
MEAN_MOTION_DOT = .57545E-3
MEAN_MOTION_DDOT = 0

CCSDS_OMM_VERS = 2.0
CREATION_DATE  = 
ORIGINATOR     = 

OBJECT_NAME    = STARLINK-35978
OBJECT_ID      = 2025-270P
CENTER_NAME    = EARTH
REF_FRAME      = TEME
TIME_SYSTEM    = UTC
MEAN_ELEMENT_THEORY = SGP/SGP4

EPOCH          = 2025-12-19T00:00:02.000160
MEAN_MOTION    = 15.40679040
ECCENTRICITY   = .00015762
INCLINATION    = 42.9991
RA_OF_ASC_NODE = 156.4332
ARG_OF_PERICENTER = 273.7278
MEAN_ANOMALY   = 54.5156

EPHEMERIS_TYPE = 0
CLASSIFICATION_TYPE = U
NORAD_CAT_ID   = 66601
ELEMENT_SET_NO = 999
REV_AT_EPOCH   = 524
BSTAR          = .12341466E-2
MEAN_MOTION_DOT = .51563E-3
MEAN_MOTION_DDOT = 0

CCSDS_OMM_VERS = 2.0
CREATION_DATE  = 
ORIGINATOR     = 

OBJECT_NAME    = STARLINK-36050
OBJECT_ID      = 2025-270Q
CENTER_NAME    = EARTH
REF_FRAME      = TEME
TIME_SYSTEM    = UTC
MEAN_ELEMENT_THEORY = SGP/SGP4

EPOCH          = 2025-12-18T21:20:56.943744
MEAN_MOTION    = 15.40719166
ECCENTRICITY   = .00014785
INCLINATION    = 42.9988
RA_OF_ASC_NODE = 157.2495
ARG_OF_PERICENTER = 273.7897
MEAN_ANOMALY   = 86.2791

EPHEMERIS_TYPE = 0
CLASSIFICATION_TYPE = U
NORAD_CAT_ID   = 66602
ELEMENT_SET_NO = 999
REV_AT_EPOCH   = 519
BSTAR          = .58412469E-3
MEAN_MOTION_DOT = .2419E-3
MEAN_MOTION_DDOT = 0

