STARLINK-36058          
1 66591U 25270D   25352.91774859 -.00213513  00000+0 -37943-2 0  9994
2 66591  42.9989 156.5941 0002563 268.1746  91.8820 15.50122475  5309
STARLINK-36066          
1 66592U 25270E   25352.88730707  .00022737  00000+0  54957-3 0  9994
2 66592  42.9991 157.2336 0001437 280.4163  79.6531 15.40720263  5196
STARLINK-36031          
1 66593U 25270F   25353.00002315  .00051844  00000+0  12410-2 0  9995
2 66593  42.9992 156.3745 0001666 273.6548  79.4074 15.40674323  5406
STARLINK-36032          
1 66594U 25270G   25353.00002315 -.01845992  00000+0 -44154-1 0  9993
2 66594  42.9999 156.1441 0002009 274.7338 173.6603 15.43868516  5144
STARLINK-35711          
1 66595U 25270H   25352.85189187  .00084719  00000+0  14343-2 0  9996
2 66595  42.9990 156.9591 0001804 259.1109 100.9548 15.50579745  5406
STARLINK-35811          
1 66596U 25270J   25352.89178671  .00018766  00000+0  45515-3 0  9992
2 66596  42.9989 157.2675 0001792 278.0365  82.0288 15.40716354  5401
STARLINK-35820          
1 66597U 25270K   25352.88282666  .00020176  00000+0  48868-3 0  9994
2 66597  42.9992 157.1985 0001523 287.0164  73.0525 15.40718030  5405
STARLINK-35981          
1 66598U 25270L   25353.00002315  .00054388  00000+0  13012-2 0  9995
2 66598  42.9994 156.3129 0002137 273.5568 104.3817 15.40671165  5240
STARLINK-35930          
1 66599U 25270M   25352.85052510  .00078696  00000+0  13334-2 0  9995
2 66599  42.9996 156.9496 0001291 288.1019  71.9701 15.50586596  5299
STARLINK-35980          
1 66600U 25270N   25353.00002315  .00057545  00000+0  13758-2 0  9994
2 66600  42.9997 156.1918 0002099 277.4972 150.1950 15.40670849  5302
STARLINK-35978          
1 66601U 25270P   25353.00002315  .00051563  00000+0  12341-2 0  9996
2 66601  42.9991 156.4332 0001576 273.7278  54.5156 15.40679040  5247
STARLINK-36050          
1 66602U 25270Q   25352.88954796  .00024190  00000+0  58412-3 0  9997
2 66602  42.9988 157.2495 0001478 273.7897  86.2791 15.40719166  5196
